RADFXSAT (FOX-1B)       
1 43017U 17073E   23312.23570626  .00013614  00000+0  91367-3 0  9998
2 43017  97.6062 190.9228 0224087 313.0903  45.1750 14.88656626322595
FOX-1D (AO-92)          
1 43137U 18004AC  23312.20406936  .00136371  00000+0  13930-2 0  9990
2 43137  97.3123  34.3305 0003504 310.1591  49.9362 15.64604531324664
DIWATA-2B               
1 43678U 18084H   23312.54910030  .00003395  00000+0  32322-3 0  9996
2 43678  98.0427  99.6777 0010229  49.6123 310.5987 14.94080232273811
ES'HAIL 2               
1 43700U 18090A   23312.54880199  .00000157  00000+0  00000+0 0  9998
2 43700   0.0138 257.7731 0001559   4.9227   8.1337  1.00271763 18136
FOX-1CLIFF (AO-95)      
1 43770U 18099N   23312.11289925  .00010458  00000+0  80202-3 0  9998
2 43770  97.5807   9.9701 0015045  34.7598 325.4606 15.01904131269194
ITASAT 1                
1 43786U 18099AE  23312.16411158  .00008000  00000+0  62675-3 0  9999
2 43786  97.5518  10.8096 0019706  18.2443 341.9484 15.01101857269238
JY1SAT (JO-97)          
1 43803U 18099AX  23312.10095584  .00011120  00000+0  82922-3 0  9998
2 43803  97.5568  11.0796 0010185 349.4959  10.6052 15.03000245269294
UWE-4                   
1 43880U 18111E   23311.74063421  .00012122  00000+0  86447-3 0  9991
2 43880  97.6227 214.7864 0019776  49.7937 310.5016 15.04547444265938
NEXUS (FO-99)           
1 43937U 19003F   23312.00651702  .03941639  22653-5  18996-2 0  9994
2 43937  97.0403 340.4623 0002928 189.0189 171.1049 16.21311465268582
JAISAT-1                
1 44419U 19038F   23312.41154065  .00055845  00000+0  13719-2 0  9999
2 44419  97.6831 299.9497 0014439 134.1240 226.1195 15.40369211240658
DUCHIFAT-3              
1 44854U 19089C   23312.39005931  .00015665  00000+0  96267-3 0  9998
2 44854  36.9609 307.6579 0005574  71.9604 288.1748 15.09419762214677
TIANYAN 01              
1 44881U 19093C   23312.51172832  .00002416  00000+0  30366-3 0  9990
2 44881  97.8513  28.4570 0013880 332.1742  27.8727 14.82961155210185
RS-44 & BREEZE-KM R/B   
1 44909U 19096E   23312.31108065  .00000010  00000+0 -40019-6 0  9997
2 44909  82.5209 252.1633 0216733 209.7610 149.1019 12.79723735180597
BY70-2                  
1 45857U 20042B   23312.56562854  .00046394  00000+0  38507-2 0  9999
2 45857  97.9154  33.6109 0008549 244.8759 115.1577 14.98571532181094
SALSAT                  
1 46495U 20068K   23312.39388904  .00009091  00000+0  56901-3 0  9991
2 46495  97.7871 262.2011 0014842 358.6200   1.4985 15.09541995170818
RADFXSAT-2 (AO-109)     
1 47311U 21002C   23312.23248360  .00074062  00000+0  12559-2 0  9992
2 47311  60.6763 220.8264 0020795  30.6509 329.5801 15.50780203156524
UVSQ-SAT                
1 47438U 21006AB  23312.13772365  .00032158  00000+0  10915-2 0  9996
2 47438  97.3655   7.5516 0007266 295.9332  64.1160 15.30419419154613
LEDSAT                  
1 49069U 21073D   23312.18398049  .00016312  00000+0  81203-3 0  9993
2 49069  97.4681  20.7902 0021861 344.3679  15.6877 15.17461194122715
XW-3 (CAS-9)            
1 50466U 21131B   23312.58619834  .00001439  00000+0  47884-3 0  9994
2 50466  98.5444  33.6426 0005213  74.8735 285.3029 14.39173534 98125
TEVEL-3                 
1 50988U 22002E   23312.46698036  .00045942  00000+0  14208-2 0  9999
2 50988  97.4165  19.0268 0007005  86.0946 274.1097 15.33332647100801
TEVEL-8                 
1 50989U 22002F   23312.55788705  .00048210  00000+0  14938-2 0  9994
2 50989  97.4181  19.1925 0007027  85.1526 275.0519 15.33259608100814
TEVEL-5                 
1 50998U 22002Q   23312.44944931  .00049457  00000+0  14691-2 0  9997
2 50998  97.4161  19.5988 0007911  79.7175 280.4960 15.34586573100844
TEVEL-6                 
1 50999U 22002R   23312.44836417  .00047866  00000+0  14228-2 0  9995
2 50999  97.4158  19.5881 0007889  79.7030 280.5102 15.34573523100847
TEVEL-1                 
1 51013U 22002AF  23312.54723989  .00048391  00000+0  14988-2 0  9990
2 51013  97.4156  19.0228 0006858  85.8378 274.3648 15.33272450100818
TEVEL-7                 
1 51062U 22002CG  23312.55638104  .00049034  00000+0  15172-2 0  9990
2 51062  97.4176  19.1610 0006969  85.0400 275.1638 15.33300448100818
TEVEL-4                 
1 51063U 22002CH  23312.43857183  .00045733  00000+0  14209-2 0  9990
2 51063  97.4175  19.0070 0006992  84.9569 275.2471 15.33186246100798
TEVEL-2                 
1 51069U 22002CP  23312.40282342  .00046484  00000+0  14371-2 0  9996
2 51069  97.4163  18.9302 0006932  86.2393 273.9642 15.33340595100795
GREENCUBE               
1 53106U 22080B   23312.48869236 -.00000003  00000+0  00000+0 0  9996
2 53106  70.1415 269.5589 0008305 157.6466 202.4556  6.42557148 31022
CYCLOPS (RS29S)         
1 53373U 22096D   23312.56681001  .00099000  00000+0  14834-2 0  9997
2 53373  97.3990 221.6963 0004870  85.4180 274.7630 15.54595146 69980
MONITOR-1 (RS32S)       
1 53374U 22096E   23312.53857746  .00093107  00000+0  15145-2 0  9994
2 53374  97.3939 221.1732 0004525  75.4263 284.7491 15.52341053 69958
KUZBASS-300 (RS34S)     
1 53375U 22096F   23312.59942137  .00058076  00000+0  11634-2 0  9995
2 53375  97.3998 220.2937 0003823  71.6194 288.5471 15.46537143 69895
UTMN (RS23S)            
1 53376U 22096G   23312.54836200  .00066496  00000+0  12679-2 0  9999
2 53376  97.3990 220.4970 0004146  75.7464 284.4247 15.47932653 69905
MIET-AIS (RS28S)        
1 53377U 22096H   23312.55819695  .00054827  00000+0  11519-2 0  9997
2 53377  97.4014 220.0711 0003545  72.5879 287.5757 15.45156681 69873
KAI-1 (RS26S)           
1 53378U 22096J   23312.58901610  .00043857  00000+0  10166-2 0  9998
2 53378  97.4035 219.4687 0003286  67.4813 292.6781 15.42286290 69831
ISOI (RS19S)            
1 53381U 22096M   23312.54759322  .00056499  00000+0  11424-2 0  9993
2 53381  97.4010 220.5088 0001257  96.8454 263.2938 15.46278324 69908
CUBESX-HSE-2 (RS21S)    
1 53383U 22096P   23312.56968887  .00062423  00000+0  11914-2 0  9993
2 53383  97.3993 220.7896 0001502  98.9791 261.1629 15.47929235 69929
SIREN (RS30S)           
1 53384U 22096Q   23312.54848047  .00051378  00000+0  11015-2 0  9996
2 53384  97.4017 220.0990 0000926 108.5489 251.5860 15.44580741 69873
GEOSCAN-EDELVEIS (RS20S)
1 53385U 22096R   23312.55221631  .00120223  00000+0  16153-2 0  9996
2 53385  97.3973 222.5859 0003365 119.3513 240.8078 15.57491392 70076
VIZARD (RS33S)          
1 53386U 22096S   23312.25200595  .00296093  00000+0  20497-2 0  9995
2 53386  97.3933 224.5244 0005826 109.7926 250.3966 15.73625637 70169
CAS-5A (FO-118)         
1 54684U 22167C   23312.56436954  .00023413  00000+0  11282-2 0  9996
2 54684  97.5800  89.7426 0012191 195.1469 164.9401 15.18667613 50557
STRATOSAT-TK 1 (RS52S)  
1 57167U 23091B   23312.57898229  .00014418  00000+0  99202-3 0  9994
2 57167  97.6468   2.0302 0017990 152.7082 207.5094 15.05873185 20143
UMKA 1 (RS40S)          
1 57172U 23091G   23312.54730769  .00007379  00000+0  52663-3 0  9999
2 57172  97.6485   1.9180 0018508 151.7197 208.5038 15.04684842 20139
CUBESX-HSE 3 (RS42S)    
1 57178U 23091N   23312.54782367  .00009940  00000+0  70251-3 0  9995
2 57178  97.6520   1.9832 0019492 147.0902 213.1542 15.04943668 20130
MONITOR-4 (RS57S)       
1 57182U 23091S   23312.55645733  .00009897  00000+0  70261-3 0  9998
2 57182  97.6502   1.9523 0019586 148.6513 211.5886 15.04772990 20132
MONITOR-2 (RS39S)       
1 57184U 23091U   23312.55945167  .00007333  00000+0  51694-3 0  9996
2 57184  97.6507   2.1073 0015680 141.7978 218.4363 15.05189905 20148
SVYATOBOR 1 (RS60S)     
1 57187U 23091X   23312.52972244  .00008338  00000+0  57823-3 0  9998
2 57187  97.6513   2.1487 0015812 138.5475 221.6954 15.05759000 20141
VIZARD-METEO (RS38S)    
1 57189U 23091Z   23312.55858113  .00010976  00000+0  74751-3 0  9991
2 57189  97.6502   2.2503 0014437 138.1858 222.0475 15.06368822 20157
NANOZOND 1 (RS49S)      
1 57190U 23091AA  23312.58822027  .00013156  00000+0  87631-3 0  9995
2 57190  97.6476   2.3169 0013187 142.4689 217.7461 15.07160635 20169
POLYTECH-UNIVERSE 3 (R*)
1 57191U 23091AB  23312.54501002  .00006817  00000+0  48213-3 0  9998
2 57191  97.6481   1.9188 0021221 158.3153 201.8976 15.05011211 20137
UTMN 2 (RS27S)          
1 57203U 23091AP  23312.56885618  .00010109  00000+0  69244-3 0  9998
2 57203  97.6493   2.2364 0014735 138.6119 221.6227 15.06174275 20151
ARCCUBE 1 (RS25S)       
1 57205U 23091AR  23312.58464496  .00014866  00000+0  98427-3 0  9998
2 57205  97.6456   2.2926 0013394 144.5497 215.6623 15.07353312 20167
KUZGTU 1 (RS47S)        
1 57217U 23091AV  23311.54822004  .00011307  00000+0  79913-3 0  9995
2 57217  97.6496   0.9556 0019262 151.4499 208.7786 15.04911487 19988
CUTE-1 (CO-55)          
1 27844U 03031E   23312.54773984  .00000851  00000+0  39719-3 0  9995
2 27844  98.6799 317.7206 0010828  70.0177 290.2166 14.22951719 56268
CUBESAT XI-IV (CO-57)   
1 27848U 03031J   23312.46887524  .00000750  00000+0  35583-3 0  9999
2 27848  98.6835 317.9996 0010784  83.9592 276.2814 14.22438720 56015
CUBESAT XI-V            
1 28895U 05043F   23311.33955643  .00004915  00000+0  89674-3 0  9997
2 28895  98.1730  82.5290 0015772 344.6367  15.4355 14.66355774961785
CUTE-1.7+APD II (CO-65) 
1 32785U 08021C   23312.49984530  .00007782  00000+0  73802-3 0  9995
2 32785  97.7251 275.6369 0011466 353.5574   6.5496 14.93783193842356
AAUSAT-II               
1 32788U 08021F   23311.90589254  .00020500  00000+0  13366-2 0  9998
2 32788  97.5751 288.5933 0005508 204.1952 155.9019 15.07908964844738
DELFI-C3 (DO-64)        
1 32789U 08021G   23312.55073768  .01558989  12931-2  40537-2 0  9996
2 32789  97.2701 336.1576 0002247 179.7302 180.3975 15.95324938849779
